ISS (ZARYA)             
1 25544U 98067A   26095.03712624  .00009326  00000+0  17854-3 0  9994
2 25544  51.6327 302.0967 0006294 273.6206  86.4063 15.48778120560416
POISK                   
1 36086U 09060A   26095.03712624  .00009326  00000+0  17854-3 0  9992
2 36086  51.6327 302.0967 0006294 273.6206  86.4063 15.48778120560228
CSS (TIANHE)            
1 48274U 21035A   26095.26060825  .00034768  00000+0  38992-3 0  9998
2 48274  41.4682  46.3215 0003546 128.6293 231.4864 15.61939070281765
ISS (NAUKA)             
1 49044U 21066A   26095.03712624  .00009326  00000+0  17854-3 0  9990
2 49044  51.6327 302.0967 0006294 273.6206  86.4063 15.48778120560260
FREGAT DEB              
1 49271U 11037PF  26094.30413852  .00015789  00000+0  22751-1 0  9999
2 49271  51.6425 223.8351 0955986 118.1292 251.9488 12.40917042215878
CSS (WENTIAN)           
1 53239U 22085A   26095.26060825  .00034768  00000+0  38992-3 0  9991
2 53239  41.4682  46.3215 0003546 128.6293 231.4864 15.61939070281155
CSS (MENGTIAN)          
1 54216U 22143A   26095.26060825  .00034768  00000+0  38992-3 0  9992
2 54216  41.4682  46.3215 0003546 128.6293 231.4864 15.61939070281151
TIANZHOU-9              
1 64786U 25149A   26095.26060825  .00034768  00000+0  38992-3 0  9994
2 64786  41.4682  46.3215 0003546 128.6293 231.4864 15.61939070281154
PROGRESS-MS 32          
1 65586U 25204A   26095.03712624  .00009326  00000+0  17854-3 0  9997
2 65586  51.6327 302.0967 0006294 273.6206  86.4063 15.48778120554509
YOTSUBA-KULOVER         
1 65941U 98067XN  26094.75875491  .00660462  20478-3  13136-2 0  9996
2 65941  51.6137 280.5790 0008036 269.0076  91.0013 15.99239064 27649
BOTAN                   
1 65943U 98067XQ  26095.21307373  .00636704  18730-3  13467-2 0  9996
2 65943  51.6174 278.3898 0008263 268.2491  91.7572 15.98144613 27719
HRC MONOBLOCK CAMERA    
1 66052U 98067XR  26094.77622727  .00071577  00000+0  70761-3 0  9990
2 66052  51.6269 293.5980 0003886 223.4722 136.5967 15.65207288 26473
