CCSDS_OMM_VERS = 2.0
CREATION_DATE  = 
ORIGINATOR     = 

OBJECT_NAME    = ISS (ZARYA)
OBJECT_ID      = 1998-067A
CENTER_NAME    = EARTH
REF_FRAME      = TEME
TIME_SYSTEM    = UTC
MEAN_ELEMENT_THEORY = SGP/SGP4

EPOCH          = 2026-04-05T00:53:27.707136
MEAN_MOTION    = 15.48778120
ECCENTRICITY   = .00062949
INCLINATION    = 51.6327
RA_OF_ASC_NODE = 302.0967
ARG_OF_PERICENTER = 273.6206
MEAN_ANOMALY   = 86.4063

EPHEMERIS_TYPE = 0
CLASSIFICATION_TYPE = U
NORAD_CAT_ID   = 25544
ELEMENT_SET_NO = 999
REV_AT_EPOCH   = 56041
BSTAR          = .17854288E-3
MEAN_MOTION_DOT = .9326E-4
MEAN_MOTION_DDOT = 0

CCSDS_OMM_VERS = 2.0
CREATION_DATE  = 
ORIGINATOR     = 

OBJECT_NAME    = POISK
OBJECT_ID      = 2009-060A
CENTER_NAME    = EARTH
REF_FRAME      = TEME
TIME_SYSTEM    = UTC
MEAN_ELEMENT_THEORY = SGP/SGP4

EPOCH          = 2026-04-05T00:53:27.707136
MEAN_MOTION    = 15.48778120
ECCENTRICITY   = .00062949
INCLINATION    = 51.6327
RA_OF_ASC_NODE = 302.0967
ARG_OF_PERICENTER = 273.6206
MEAN_ANOMALY   = 86.4063

EPHEMERIS_TYPE = 0
CLASSIFICATION_TYPE = U
NORAD_CAT_ID   = 36086
ELEMENT_SET_NO = 999
REV_AT_EPOCH   = 56022
BSTAR          = .17854288E-3
MEAN_MOTION_DOT = .9326E-4
MEAN_MOTION_DDOT = 0

CCSDS_OMM_VERS = 2.0
CREATION_DATE  = 
ORIGINATOR     = 

OBJECT_NAME    = CSS (TIANHE)
OBJECT_ID      = 2021-035A
CENTER_NAME    = EARTH
REF_FRAME      = TEME
TIME_SYSTEM    = UTC
MEAN_ELEMENT_THEORY = SGP/SGP4

EPOCH          = 2026-04-05T06:15:16.552800
MEAN_MOTION    = 15.61939070
ECCENTRICITY   = .0003546
INCLINATION    = 41.4682
RA_OF_ASC_NODE = 46.3215
ARG_OF_PERICENTER = 128.6293
MEAN_ANOMALY   = 231.4864

EPHEMERIS_TYPE = 0
CLASSIFICATION_TYPE = U
NORAD_CAT_ID   = 48274
ELEMENT_SET_NO = 999
REV_AT_EPOCH   = 28176
BSTAR          = .389924E-3
MEAN_MOTION_DOT = .34768E-3
MEAN_MOTION_DDOT = 0

CCSDS_OMM_VERS = 2.0
CREATION_DATE  = 
ORIGINATOR     = 

OBJECT_NAME    = ISS (NAUKA)
OBJECT_ID      = 2021-066A
CENTER_NAME    = EARTH
REF_FRAME      = TEME
TIME_SYSTEM    = UTC
MEAN_ELEMENT_THEORY = SGP/SGP4

EPOCH          = 2026-04-05T00:53:27.707136
MEAN_MOTION    = 15.48778120
ECCENTRICITY   = .00062949
INCLINATION    = 51.6327
RA_OF_ASC_NODE = 302.0967
ARG_OF_PERICENTER = 273.6206
MEAN_ANOMALY   = 86.4063

EPHEMERIS_TYPE = 0
CLASSIFICATION_TYPE = U
NORAD_CAT_ID   = 49044
ELEMENT_SET_NO = 999
REV_AT_EPOCH   = 56026
BSTAR          = .17854288E-3
MEAN_MOTION_DOT = .9326E-4
MEAN_MOTION_DDOT = 0

CCSDS_OMM_VERS = 2.0
CREATION_DATE  = 
ORIGINATOR     = 

OBJECT_NAME    = FREGAT DEB
OBJECT_ID      = 2011-037PF
CENTER_NAME    = EARTH
REF_FRAME      = TEME
TIME_SYSTEM    = UTC
MEAN_ELEMENT_THEORY = SGP/SGP4

EPOCH          = 2026-04-04T07:17:57.568128
MEAN_MOTION    = 12.40917042
ECCENTRICITY   = .09559866
INCLINATION    = 51.6425
RA_OF_ASC_NODE = 223.8351
ARG_OF_PERICENTER = 118.1292
MEAN_ANOMALY   = 251.9488

EPHEMERIS_TYPE = 0
CLASSIFICATION_TYPE = U
NORAD_CAT_ID   = 49271
ELEMENT_SET_NO = 999
REV_AT_EPOCH   = 21587
BSTAR          = .22750717E-1
MEAN_MOTION_DOT = .15789E-3
MEAN_MOTION_DDOT = 0

CCSDS_OMM_VERS = 2.0
CREATION_DATE  = 
ORIGINATOR     = 

OBJECT_NAME    = CSS (WENTIAN)
OBJECT_ID      = 2022-085A
CENTER_NAME    = EARTH
REF_FRAME      = TEME
TIME_SYSTEM    = UTC
MEAN_ELEMENT_THEORY = SGP/SGP4

EPOCH          = 2026-04-05T06:15:16.552800
MEAN_MOTION    = 15.61939070
ECCENTRICITY   = .0003546
INCLINATION    = 41.4682
RA_OF_ASC_NODE = 46.3215
ARG_OF_PERICENTER = 128.6293
MEAN_ANOMALY   = 231.4864

EPHEMERIS_TYPE = 0
CLASSIFICATION_TYPE = U
NORAD_CAT_ID   = 53239
ELEMENT_SET_NO = 999
REV_AT_EPOCH   = 28115
BSTAR          = .389924E-3
MEAN_MOTION_DOT = .34768E-3
MEAN_MOTION_DDOT = 0

CCSDS_OMM_VERS = 2.0
CREATION_DATE  = 
ORIGINATOR     = 

OBJECT_NAME    = CSS (MENGTIAN)
OBJECT_ID      = 2022-143A
CENTER_NAME    = EARTH
REF_FRAME      = TEME
TIME_SYSTEM    = UTC
MEAN_ELEMENT_THEORY = SGP/SGP4

EPOCH          = 2026-04-05T06:15:16.552800
MEAN_MOTION    = 15.61939070
ECCENTRICITY   = .0003546
INCLINATION    = 41.4682
RA_OF_ASC_NODE = 46.3215
ARG_OF_PERICENTER = 128.6293
MEAN_ANOMALY   = 231.4864

EPHEMERIS_TYPE = 0
CLASSIFICATION_TYPE = U
NORAD_CAT_ID   = 54216
ELEMENT_SET_NO = 999
REV_AT_EPOCH   = 28115
BSTAR          = .389924E-3
MEAN_MOTION_DOT = .34768E-3
MEAN_MOTION_DDOT = 0

CCSDS_OMM_VERS = 2.0
CREATION_DATE  = 
ORIGINATOR     = 

OBJECT_NAME    = TIANZHOU-9
OBJECT_ID      = 2025-149A
CENTER_NAME    = EARTH
REF_FRAME      = TEME
TIME_SYSTEM    = UTC
MEAN_ELEMENT_THEORY = SGP/SGP4

EPOCH          = 2026-04-05T06:15:16.552800
MEAN_MOTION    = 15.61939070
ECCENTRICITY   = .0003546
INCLINATION    = 41.4682
RA_OF_ASC_NODE = 46.3215
ARG_OF_PERICENTER = 128.6293
MEAN_ANOMALY   = 231.4864

EPHEMERIS_TYPE = 0
CLASSIFICATION_TYPE = U
NORAD_CAT_ID   = 64786
ELEMENT_SET_NO = 999
REV_AT_EPOCH   = 28115
BSTAR          = .389924E-3
MEAN_MOTION_DOT = .34768E-3
MEAN_MOTION_DDOT = 0

CCSDS_OMM_VERS = 2.0
CREATION_DATE  = 
ORIGINATOR     = 

OBJECT_NAME    = PROGRESS-MS 32
OBJECT_ID      = 2025-204A
CENTER_NAME    = EARTH
REF_FRAME      = TEME
TIME_SYSTEM    = UTC
MEAN_ELEMENT_THEORY = SGP/SGP4

EPOCH          = 2026-04-05T00:53:27.707136
MEAN_MOTION    = 15.48778120
ECCENTRICITY   = .00062949
INCLINATION    = 51.6327
RA_OF_ASC_NODE = 302.0967
ARG_OF_PERICENTER = 273.6206
MEAN_ANOMALY   = 86.4063

EPHEMERIS_TYPE = 0
CLASSIFICATION_TYPE = U
NORAD_CAT_ID   = 65586
ELEMENT_SET_NO = 999
REV_AT_EPOCH   = 55450
BSTAR          = .17854288E-3
MEAN_MOTION_DOT = .9326E-4
MEAN_MOTION_DDOT = 0

CCSDS_OMM_VERS = 2.0
CREATION_DATE  = 
ORIGINATOR     = 

OBJECT_NAME    = YOTSUBA-KULOVER
OBJECT_ID      = 1998-067XN
CENTER_NAME    = EARTH
REF_FRAME      = TEME
TIME_SYSTEM    = UTC
MEAN_ELEMENT_THEORY = SGP/SGP4

EPOCH          = 2026-04-04T18:12:36.424224
MEAN_MOTION    = 15.99239064
ECCENTRICITY   = .00080365
INCLINATION    = 51.6137
RA_OF_ASC_NODE = 280.5790
ARG_OF_PERICENTER = 269.0076
MEAN_ANOMALY   = 91.0013

EPHEMERIS_TYPE = 0
CLASSIFICATION_TYPE = U
NORAD_CAT_ID   = 65941
ELEMENT_SET_NO = 999
REV_AT_EPOCH   = 2764
BSTAR          = .13136216E-2
MEAN_MOTION_DOT = .660462E-2
MEAN_MOTION_DDOT = .20478297E-3

CCSDS_OMM_VERS = 2.0
CREATION_DATE  = 
ORIGINATOR     = 

OBJECT_NAME    = BOTAN
OBJECT_ID      = 1998-067XQ
CENTER_NAME    = EARTH
REF_FRAME      = TEME
TIME_SYSTEM    = UTC
MEAN_ELEMENT_THEORY = SGP/SGP4

EPOCH          = 2026-04-05T05:06:49.570272
MEAN_MOTION    = 15.98144613
ECCENTRICITY   = .00082637
INCLINATION    = 51.6174
RA_OF_ASC_NODE = 278.3898
ARG_OF_PERICENTER = 268.2491
MEAN_ANOMALY   = 91.7572

EPHEMERIS_TYPE = 0
CLASSIFICATION_TYPE = U
NORAD_CAT_ID   = 65943
ELEMENT_SET_NO = 999
REV_AT_EPOCH   = 2771
BSTAR          = .13467159E-2
MEAN_MOTION_DOT = .636704E-2
MEAN_MOTION_DDOT = .18730398E-3

CCSDS_OMM_VERS = 2.0
CREATION_DATE  = 
ORIGINATOR     = 

OBJECT_NAME    = HRC MONOBLOCK CAMERA
OBJECT_ID      = 1998-067XR
CENTER_NAME    = EARTH
REF_FRAME      = TEME
TIME_SYSTEM    = UTC
MEAN_ELEMENT_THEORY = SGP/SGP4

EPOCH          = 2026-04-04T18:37:46.036128
MEAN_MOTION    = 15.65207288
ECCENTRICITY   = .00038864
INCLINATION    = 51.6269
RA_OF_ASC_NODE = 293.5980
ARG_OF_PERICENTER = 223.4722
MEAN_ANOMALY   = 136.5967

EPHEMERIS_TYPE = 0
CLASSIFICATION_TYPE = U
NORAD_CAT_ID   = 66052
ELEMENT_SET_NO = 999
REV_AT_EPOCH   = 2647
BSTAR          = .70761486E-3
MEAN_MOTION_DOT = .71577E-3
MEAN_MOTION_DDOT = 0

